NORAD_CAT_ID,OBJECT_NAME,OBJECT_TYPE,EPOCH,MEAN_MOTION,ECCENTRICITY,INCLINATION,RA_OF_ASC_NODE,ARG_OF_PERICENTER,MEAN_ANOMALY,BSTAR,MEAN_MOTION_DOT,MEAN_MOTION_DDOT,TLE_LINE0,TLE_LINE1,TLE_LINE2,SEMIMAJOR_AXIS,PERIOD,APOGEE,PERIGEE,DECAYED
55423.0,STARLINK-5068,PAYLOAD,2023-06-29 19:01:39,14.98328351,0.0003142,70.0001,45.2213,268.237,91.843,-8.6664e-06,-1.96e-06,0.0,0 STARLINK-5068,1 55423U 23014AJ  23180.79282255 -.00000196  00000-0 -86664-5 0  9996,2 55423  70.0001  45.2213 0003142 268.2370  91.8430 14.98328351 23244,6950.198,96.107,574.247,569.879,0.0
55423.0,STARLINK-5068,PAYLOAD,2023-06-30 23:52:04,14.98330219,0.0003067,70.0002,42.1914,269.7878,90.293,-1.0628e-06,-1.06e-06,0.0,0 STARLINK-5068,1 55423U 23014AJ  23181.99450070 -.00000106  00000-0 -10628-5 0  9999,2 55423  70.0002  42.1914 0003067 269.7878  90.2930 14.98330219 23428,6950.192,96.107,574.189,569.926,0.0
55423.0,STARLINK-5068,PAYLOAD,2023-07-01 23:54:05,14.98331286,0.0003104,70.0001,39.6664,269.502,90.5784,-6.2235e-07,-1e-06,0.0,0 STARLINK-5068,1 55423U 23014AJ  23182.99589916 -.00000100  00000-0 -62235-6 0  9998,2 55423  70.0001  39.6664 0003104 269.5020  90.5784 14.98331286 23570,6950.189,96.107,574.211,569.897,0.0
55423.0,STARLINK-5068,PAYLOAD,2023-07-02 23:56:06,14.983303,0.000315,70.0,37.1413,270.1809,89.899,1.1728e-05,4.7e-07,0.0,0 STARLINK-5068,1 55423U 23014AJ  23183.99729905  .00000047  00000-0  11728-4 0  9990,2 55423  70.0000  37.1413 0003150 270.1809  89.8990 14.98330300 23721,6950.192,96.107,574.246,569.868,0.0
55423.0,STARLINK-5068,PAYLOAD,2023-07-03 23:58:07,14.98333257,0.0003151,70.0,34.6162,269.6449,90.4349,1.8862e-05,1.32e-06,0.0,0 STARLINK-5068,1 55423U 23014AJ  23184.99869599  .00000132  00000-0  18862-4 0  9996,2 55423  70.0000  34.6162 0003151 269.6449  90.4349 14.98333257 23874,6950.183,96.107,574.238,569.858,0.0
55423.0,STARLINK-5068,PAYLOAD,2023-07-05 00:00:08,14.98331494,0.0003123,70.0001,32.0913,269.6606,90.4195,1.7947e-05,1.21e-06,0.0,0 STARLINK-5068,1 55423U 23014AJ  23186.00009596  .00000121  00000-0  17947-4 0  9994,2 55423  70.0001  32.0913 0003123 269.6606  90.4195 14.98331494 24023,6950.188,96.107,574.224,569.883,0.0
55423.0,STARLINK-5068,PAYLOAD,2023-07-06 00:02:09,14.98331459,0.0003041,70.0003,29.5672,267.5373,92.5438,-1.6967e-06,-1.13e-06,0.0,0 STARLINK-5068,1 55423U 23014AJ  23187.00149554 -.00000113  00000-0 -16967-5 0  9999,2 55423  70.0003  29.5672 0003041 267.5373  92.5438 14.98331459 24175,6950.188,96.107,574.167,569.94,0.0
55423.0,STARLINK-5068,PAYLOAD,2023-07-07 19:17:46,14.9832956,0.0003144,70.0001,25.0215,268.3091,91.7708,-9.8162e-06,-2.1e-06,0.0,0 STARLINK-5068,1 55423U 23014AJ  23188.80401534 -.00000210  00000-0 -98162-5 0  9992,2 55423  70.0001  25.0215 0003144 268.3091  91.7708 14.98329560 24448,6950.194,96.107,574.244,569.874,0.0
55423.0,STARLINK-5068,PAYLOAD,2023-07-08 19:19:47,14.98329017,0.0003121,69.9999,22.4961,268.4298,91.6503,-2.4707e-05,-3.88e-06,0.0,0 STARLINK-5068,1 55423U 23014AJ  23189.80541631 -.00000388  00000-0 -24707-4 0  9995,2 55423  69.9999  22.4961 0003121 268.4298  91.6503 14.98329017 24590,6950.196,96.107,574.23,569.892,0.0
55423.0,STARLINK-5068,PAYLOAD,2023-07-09 22:34:04,14.98330442,0.0003174,70.0001,19.6342,268.5294,91.5501,1.7314e-05,1.14e-06,0.0,0 STARLINK-5068,1 55423U 23014AJ  23190.94033462  .00000114  00000-0  17314-4 0  9991,2 55423  70.0001  19.6342 0003174 268.5294  91.5501 14.98330442 24763,6950.192,96.107,574.263,569.851,0.0
55423.0,STARLINK-5068,PAYLOAD,2023-07-10 22:36:05,14.98332676,0.0003219,70.0002,17.1094,268.654,91.4251,5.1153e-05,5.17e-06,0.0,0 STARLINK-5068,1 55423U 23014AJ  23191.94173142  .00000517  00000-0  51153-4 0  9998,2 55423  70.0002  17.1094 0003219 268.6540  91.4251 14.98332676 24915,6950.185,96.107,574.287,569.812,0.0
55423.0,STARLINK-5068,PAYLOAD,2023-07-11 11:25:10,14.98328408,0.000314,70.0006,15.7628,269.3956,90.6843,-2.77e-05,-4.23e-06,0.0,0 STARLINK-5068,1 55423U 23014AJ  23192.47581625 -.00000423  00000-0 -27700-4 0  9995,2 55423  70.0006  15.7628 0003140 269.3956  90.6843 14.98328408 24992,6950.198,96.107,574.245,569.88,0.0
55423.0,STARLINK-5068,PAYLOAD,2023-07-12 17:51:43,14.98333973,0.000306,70.0009,12.565,268.0227,92.0582,1.0475e-05,3.2e-07,0.0,0 STARLINK-5068,1 55423U 23014AJ  23193.74425076  .00000032  00000-0  10475-4 0  9998,2 55423  70.0009  12.5650 0003060 268.0227  92.0582 14.98333973 25184,6950.181,96.107,574.172,569.919,0.0
55423.0,STARLINK-5068,PAYLOAD,2023-07-13 17:53:44,14.98331467,0.000314,70.0006,10.04,267.7056,92.3744,3.4835e-05,3.23e-06,0.0,0 STARLINK-5068,1 55423U 23014AJ  23194.74565071  .00000323  00000-0  34835-4 0  9998,2 55423  70.0006  10.0400 0003140 267.7056  92.3744 14.98331467 25338,6950.188,96.107,574.236,569.871,0.0
55423.0,STARLINK-5068,PAYLOAD,2023-07-14 17:55:45,14.98331853,0.0003295,70.0003,7.5148,269.694,90.3841,-1.6294e-05,-2.87e-06,0.0,0 STARLINK-5068,1 55423U 23014AJ  23195.74705131 -.00000287  00000-0 -16294-4 0  9992,2 55423  70.0003   7.5148 0003295 269.6940  90.3841 14.98331853 25480,6950.187,96.107,574.342,569.762,0.0
55423.0,STARLINK-5068,PAYLOAD,2023-07-15 17:57:46,14.98328041,0.0003151,70.0006,4.9894,265.379,94.701,2.3288e-05,1.85e-06,0.0,0 STARLINK-5068,1 55423U 23014AJ  23196.74845245  .00000185  00000-0  23288-4 0  9990,2 55423  70.0006   4.9894 0003151 265.3790  94.7010 14.98328041 25637,6950.199,96.107,574.254,569.874,0.0
55423.0,STARLINK-5068,PAYLOAD,2023-07-16 17:59:47,14.98330278,0.0003163,70.0007,2.4648,267.733,92.3466,5.4114e-06,-2.8e-07,0.0,0 STARLINK-5068,1 55423U 23014AJ  23197.74985205 -.00000028  00000-0  54114-5 0  9992,2 55423  70.0007   2.4648 0003163 267.7330  92.3466 14.98330278 25787,6950.192,96.107,574.255,569.859,0.0
55423.0,STARLINK-5068,PAYLOAD,2023-07-16 21:12:03,14.98314591,0.0002622,70.0009,2.1285,262.2989,97.7872,0.00024093,2.782e-05,0.0,0 STARLINK-5068,1 55423U 23014AJ  23197.88337728  .00002782  00000-0  24093-3 0  9997,2 55423  70.0009   2.1285 0002622 262.2989  97.7872 14.98314591 25805,6950.241,96.108,573.928,570.283,0.0
55423.0,STARLINK-5068,PAYLOAD,2023-07-17 10:01:07,14.98329494,0.0003269,70.0007,0.782,267.3355,92.743,2.6719e-05,2.26e-06,0.0,0 STARLINK-5068,1 55423U 23014AJ  23198.41745180  .00000226  00000-0  26719-4 0  9991,2 55423  70.0007   0.7820 0003269 267.3355  92.7430 14.98329494 25884,6950.194,96.107,574.331,569.787,0.0
55423.0,STARLINK-5068,PAYLOAD,2023-07-17 21:14:03,14.98335315,0.0003248,70.0007,359.6036,267.5381,92.5406,6.5663e-05,6.91e-06,0.0,0 STARLINK-5068,1 55423U 23014AJ  23198.88476644  .00000691  00000-0  65663-4 0  9995,2 55423  70.0007 359.6036 0003248 267.5381  92.5406 14.98335315 25955,6950.176,96.107,574.299,569.784,0.0
55423.0,STARLINK-5068,PAYLOAD,2023-07-18 14:51:32,14.98330348,0.0003168,70.001,357.7522,269.1755,90.9041,8.8043e-06,1.2e-07,0.0,0 STARLINK-5068,1 55423U 23014AJ  23199.61913021  .00000012  00000-0  88043-5 0  9997,2 55423  70.0010 357.7522 0003168 269.1755  90.9041 14.98330348 26063,6950.192,96.107,574.259,569.855,0.0
55423.0,STARLINK-5068,PAYLOAD,2023-07-19 16:29:42,14.98324593,0.0002953,70.0018,355.0601,261.9122,98.1702,-8.921e-05,-1.157e-05,0.0,0 STARLINK-5068,1 55423U 23014AJ  23200.68729633 -.00001157  00000-0 -89210-4 0  9990,2 55423  70.0018 355.0601 0002953 261.9122  98.1702 14.98324593 26226,6950.21,96.107,574.127,570.022,0.0
55423.0,STARLINK-5068,PAYLOAD,2023-07-20 13:19:26,14.98332128,0.0003152,70.0016,352.8722,262.871,97.2091,-1.251e-05,-2.42e-06,0.0,0 STARLINK-5068,1 55423U 23014AJ  23201.55517032 -.00000242  00000-0 -12510-4 0  9998,2 55423  70.0016 352.8722 0003152 262.8710  97.2091 14.98332128 26356,6950.186,96.107,574.242,569.861,0.0
55423.0,STARLINK-5068,PAYLOAD,2023-07-24 08:39:06,14.98330925,0.0003281,70.0015,343.2785,262.3811,97.6976,2.0665e-05,1.54e-06,0.0,0 STARLINK-5068,1 55423U 23014AJ  23205.36048625  .00000154  00000-0  20665-4 0  9998,2 55423  70.0015 343.2785 0003281 262.3811  97.6976 14.98330925 27864,6950.19,96.107,574.335,569.775,0.0
55423.0,STARLINK-5068,PAYLOAD,2023-07-25 11:53:23,14.98329408,0.0003535,69.9989,340.4117,268.784,91.2914,-2.5928e-05,-4.02e-06,0.0,0 STARLINK-5068,1 55423U 23014AJ  23206.49540837 -.00000402  00000-0 -25928-4 0  9990,2 55423  69.9989 340.4117 0003535 268.7840  91.2914 14.98329408 28039,6950.195,96.107,574.517,569.603,0.0
55423.0,STARLINK-5068,PAYLOAD,2023-07-26 10:19:15,14.98332226,0.0003568,70.0007,338.0576,266.4449,93.6302,5.5901e-07,-8.6e-07,0.0,0 STARLINK-5068,1 55423U 23014AJ  23207.43004536 -.00000086  00000-0  55901-6 0  9999,2 55423  70.0007 338.0576 0003568 266.4449  93.6302 14.98332226 28175,6950.186,96.107,574.531,569.571,0.0
55423.0,STARLINK-5068,PAYLOAD,2023-07-27 08:45:09,14.98302395,0.0003491,70.0007,335.7014,270.4327,89.6432,0.00023534,2.714e-05,0.0,0 STARLINK-5068,1 55423U 23014AJ  23208.36469596  .00002714  00000-0  23534-3 0  9996,2 55423  70.0007 335.7014 0003491 270.4327  89.6432 14.98302395 27375,6950.278,96.109,574.57,569.717,0.0
55423.0,STARLINK-5068,PAYLOAD,2023-07-27 18:21:57,14.98325122,0.0003541,70.0006,334.6918,271.0723,89.003,3.0787e-06,-5.6e-07,0.0,0 STARLINK-5068,1 55423U 23014AJ  23208.76524938 -.00000056  00000-0  30787-5 0  9990,2 55423  70.0006 334.6918 0003541 271.0723  89.0030 14.98325122 27436,6950.208,96.107,574.534,569.612,0.0
55423.0,STARLINK-5068,PAYLOAD,2023-07-28 08:47:10,14.9832719,0.0003549,70.0004,333.1768,271.5914,88.4838,-3.4873e-05,-5.09e-06,0.0,0 STARLINK-5068,1 55423U 23014AJ  23209.36608981 -.00000509  00000-0 -34873-4 0  9991,2 55423  70.0004 333.1768 0003549 271.5914  88.4838 14.98327190 28466,6950.202,96.107,574.533,569.6,0.0
55423.0,STARLINK-5068,PAYLOAD,2023-07-28 15:11:42,14.98334934,0.0003573,70.0005,332.5037,271.3834,88.6916,-4.8937e-05,-6.77e-06,0.0,0 STARLINK-5068,1 55423U 23014AJ  23209.63312540 -.00000677  00000-0 -48937-4 0  9996,2 55423  70.0005 332.5037 0003573 271.3834  88.6916 14.98334934 27568,6950.178,96.107,574.526,569.559,0.0
